{
  "type": "FeatureCollection",
  "features": [
    {
      "type": "Feature",
      "properties": {
        "norad_id": 15362,
        "name": "NOVA 3",
        "group": "nnss",
        "lat": -60.3267192246833,
        "lon": -99.60087787417434,
        "alt_km": 1173.4450526170904,
        "timestamp": "2025-12-19T10:50:01.469614+00:00",
        "meta_object_name": "NOVA 3",
        "meta_object_id": "1984-110A",
        "meta_epoch": "2025-12-18T19:40:56.942400",
        "meta_mean_motion": 13.23045208,
        "meta_eccentricity": 0.00300717,
        "meta_inclination": 90.1222,
        "meta_ra_of_asc_node": 80.6063,
        "meta_arg_of_pericenter": 314.5252,
        "meta_mean_anomaly": 160.9402,
        "meta_ephemeris_type": 0,
        "meta_classification_type": "U",
        "meta_norad_cat_id": 15362,
        "meta_element_set_no": 999,
        "meta_rev_at_epoch": 98779,
        "meta_bstar": 0.00011849816,
        "meta_mean_motion_dot": 5.8e-07,
        "meta_mean_motion_ddot": 0,
        "tle_line1": "1 15362U 84110A   25352.82010350  .00000058  00000+0  11850-3 0  9997",
        "tle_line2": "2 15362  90.1222  80.6063 0030071 314.5252 160.9402 13.23045208987791"
      },
      "geometry": {
        "type": "Point",
        "coordinates": [
          -99.60087787417434,
          -60.3267192246833
        ]
      }
    },
    {
      "type": "Feature",
      "properties": {
        "norad_id": 15935,
        "name": "OSCAR 30",
        "group": "nnss",
        "lat": -85.12564094240719,
        "lon": 101.90022732211662,
        "alt_km": 1241.1636968999155,
        "timestamp": "2025-12-19T10:50:01.469625+00:00",
        "meta_object_name": "OSCAR 30",
        "meta_object_id": "1985-066A",
        "meta_epoch": "2025-12-18T21:30:02.918304",
        "meta_mean_motion": 13.36079203,
        "meta_eccentricity": 0.01692605,
        "meta_inclination": 90.1656,
        "meta_ra_of_asc_node": 99.9478,
        "meta_arg_of_pericenter": 66.7281,
        "meta_mean_anomaly": 58.6168,
        "meta_ephemeris_type": 0,
        "meta_classification_type": "U",
        "meta_norad_cat_id": 15935,
        "meta_element_set_no": 999,
        "meta_rev_at_epoch": 96535,
        "meta_bstar": 0.00011351826,
        "meta_mean_motion_dot": 7.3e-07,
        "meta_mean_motion_ddot": 0,
        "tle_line1": "1 15935U 85066A   25352.89586711  .00000073  00000+0  11352-3 0  9994",
        "tle_line2": "2 15935  90.1656  99.9478 0169260  66.7281  58.6168 13.36079203965358"
      },
      "geometry": {
        "type": "Point",
        "coordinates": [
          101.90022732211662,
          -85.12564094240719
        ]
      }
    },
    {
      "type": "Feature",
      "properties": {
        "norad_id": 15936,
        "name": "OSCAR 24",
        "group": "nnss",
        "lat": -14.303646808037442,
        "lon": 92.46974743284757,
        "alt_km": 1117.4935484139414,
        "timestamp": "2025-12-19T10:50:01.469636+00:00",
        "meta_object_name": "OSCAR 24",
        "meta_object_id": "1985-066B",
        "meta_epoch": "2025-12-18T19:16:46.005600",
        "meta_mean_motion": 13.35936567,
        "meta_eccentricity": 0.0170386,
        "meta_inclination": 90.1792,
        "meta_ra_of_asc_node": 92.4126,
        "meta_arg_of_pericenter": 73.4218,
        "meta_mean_anomaly": 39.2295,
        "meta_ephemeris_type": 0,
        "meta_classification_type": "U",
        "meta_norad_cat_id": 15936,
        "meta_element_set_no": 999,
        "meta_rev_at_epoch": 96724,
        "meta_bstar": 9.906903e-05,
        "meta_mean_motion_dot": 6.5e-07,
        "meta_mean_motion_ddot": 0,
        "tle_line1": "1 15936U 85066B   25352.80331025  .00000065  00000+0  99069-4 0  9995",
        "tle_line2": "2 15936  90.1792  92.4126 0170386  73.4218  39.2295 13.35936567967244"
      },
      "geometry": {
        "type": "Point",
        "coordinates": [
          92.46974743284757,
          -14.303646808037442
        ]
      }
    },
    {
      "type": "Feature",
      "properties": {
        "norad_id": 17070,
        "name": "POLAR BEAR",
        "group": "nnss",
        "lat": 51.99489307664644,
        "lon": -176.0047182670525,
        "alt_km": 955.551501699354,
        "timestamp": "2025-12-19T10:50:01.469647+00:00",
        "meta_object_name": "POLAR BEAR",
        "meta_object_id": "1986-088A",
        "meta_epoch": "2025-12-18T23:11:21.504768",
        "meta_mean_motion": 13.75252074,
        "meta_eccentricity": 0.00412388,
        "meta_inclination": 89.617,
        "meta_ra_of_asc_node": 183.5244,
        "meta_arg_of_pericenter": 101.3082,
        "meta_mean_anomaly": 70.4628,
        "meta_ephemeris_type": 0,
        "meta_classification_type": "U",
        "meta_norad_cat_id": 17070,
        "meta_element_set_no": 999,
        "meta_rev_at_epoch": 96064,
        "meta_bstar": 0.00010453413,
        "meta_mean_motion_dot": 1.12e-06,
        "meta_mean_motion_ddot": 0,
        "tle_line1": "1 17070U 86088A   25352.96622112  .00000112  00000+0  10453-3 0  9990",
        "tle_line2": "2 17070  89.6170 183.5244 0041238 101.3082  70.4628 13.75252074960646"
      },
      "geometry": {
        "type": "Point",
        "coordinates": [
          -176.0047182670525,
          51.99489307664644
        ]
      }
    },
    {
      "type": "Feature",
      "properties": {
        "norad_id": 18361,
        "name": "OSCAR 27",
        "group": "nnss",
        "lat": -61.16940368890765,
        "lon": 80.20369685025423,
        "alt_km": 1103.492183284795,
        "timestamp": "2025-12-19T10:50:01.469658+00:00",
        "meta_object_name": "OSCAR 27",
        "meta_object_id": "1987-080A",
        "meta_epoch": "2025-12-18T19:04:14.075040",
        "meta_mean_motion": 13.44907928,
        "meta_eccentricity": 0.01033958,
        "meta_inclination": 90.3742,
        "meta_ra_of_asc_node": 79.4989,
        "meta_arg_of_pericenter": 206.3209,
        "meta_mean_anomaly": 153.2665,
        "meta_ephemeris_type": 0,
        "meta_classification_type": "U",
        "meta_norad_cat_id": 18361,
        "meta_element_set_no": 999,
        "meta_rev_at_epoch": 87638,
        "meta_bstar": 0.00014935073,
        "meta_mean_motion_dot": 9.8e-07,
        "meta_mean_motion_ddot": 0,
        "tle_line1": "1 18361U 87080A   25352.79460735  .00000098  00000+0  14935-3 0  9991",
        "tle_line2": "2 18361  90.3742  79.4989 0103395 206.3209 153.2665 13.44907928876382"
      },
      "geometry": {
        "type": "Point",
        "coordinates": [
          80.20369685025423,
          -61.16940368890765
        ]
      }
    },
    {
      "type": "Feature",
      "properties": {
        "norad_id": 18362,
        "name": "OSCAR 29",
        "group": "nnss",
        "lat": -60.08412571076011,
        "lon": 80.6352560904829,
        "alt_km": 1075.5027108106942,
        "timestamp": "2025-12-19T10:50:01.469668+00:00",
        "meta_object_name": "OSCAR 29",
        "meta_object_id": "1987-080B",
        "meta_epoch": "2025-12-18T19:40:11.741376",
        "meta_mean_motion": 13.44449506,
        "meta_eccentricity": 0.01042674,
        "meta_inclination": 90.3752,
        "meta_ra_of_asc_node": 79.9591,
        "meta_arg_of_pericenter": 229.5196,
        "meta_mean_anomaly": 253.0826,
        "meta_ephemeris_type": 0,
        "meta_classification_type": "U",
        "meta_norad_cat_id": 18362,
        "meta_element_set_no": 999,
        "meta_rev_at_epoch": 87591,
        "meta_bstar": 0.0001394473,
        "meta_mean_motion_dot": 9.1e-07,
        "meta_mean_motion_ddot": 0,
        "tle_line1": "1 18362U 87080B   25352.81958034  .00000091  00000+0  13945-3 0  9992",
        "tle_line2": "2 18362  90.3752  79.9591 0104267 229.5196 253.0826 13.44449506875918"
      },
      "geometry": {
        "type": "Point",
        "coordinates": [
          80.6352560904829,
          -60.08412571076011
        ]
      }
    },
    {
      "type": "Feature",
      "properties": {
        "norad_id": 19070,
        "name": "OSCAR 23",
        "group": "nnss",
        "lat": 30.415570962436234,
        "lon": 16.412384683486408,
        "alt_km": 1245.4157329830396,
        "timestamp": "2025-12-19T10:50:01.469678+00:00",
        "meta_object_name": "OSCAR 23",
        "meta_object_id": "1988-033A",
        "meta_epoch": "2025-12-18T13:48:21.612960",
        "meta_mean_motion": 13.27788153,
        "meta_eccentricity": 0.01900114,
        "meta_inclination": 90.3207,
        "meta_ra_of_asc_node": 16.5735,
        "meta_arg_of_pericenter": 163.7148,
        "meta_mean_anomaly": 2.8387,
        "meta_ephemeris_type": 0,
        "meta_classification_type": "U",
        "meta_norad_cat_id": 19070,
        "meta_element_set_no": 999,
        "meta_rev_at_epoch": 82330,
        "meta_bstar": 0.00020120685,
        "meta_mean_motion_dot": 1.09e-06,
        "meta_mean_motion_ddot": 0,
        "tle_line1": "1 19070U 88033A   25352.57525015  .00000109  00000+0  20121-3 0  9994",
        "tle_line2": "2 19070  90.3207  16.5735 0190011 163.7148   2.8387 13.27788153823308"
      },
      "geometry": {
        "type": "Point",
        "coordinates": [
          16.412384683486408,
          30.415570962436234
        ]
      }
    }
  ]
}